CCSDS_OMM_VERS = 2.0
CREATION_DATE  = 
ORIGINATOR     = 

OBJECT_NAME    = CZ-2C R/B
OBJECT_ID      = 2022-132E
CENTER_NAME    = EARTH
REF_FRAME      = TEME
TIME_SYSTEM    = UTC
MEAN_ELEMENT_THEORY = SGP/SGP4

EPOCH          = 2025-12-09T12:24:29.162016
MEAN_MOTION    = 15.54501286
ECCENTRICITY   = .0023456
INCLINATION    = 97.2948
RA_OF_ASC_NODE = 339.6541
ARG_OF_PERICENTER = 67.6851
MEAN_ANOMALY   = 292.6887

EPHEMERIS_TYPE = 0
CLASSIFICATION_TYPE = U
NORAD_CAT_ID   = 54039
ELEMENT_SET_NO = 999
REV_AT_EPOCH   = 17633
BSTAR          = .57764E-3
MEAN_MOTION_DOT = .3851E-3
MEAN_MOTION_DDOT = 0

CCSDS_OMM_VERS = 2.0
CREATION_DATE  = 
ORIGINATOR     = 

OBJECT_NAME    = GSLV R/B
OBJECT_ID      = 2022-138AN
CENTER_NAME    = EARTH
REF_FRAME      = TEME
TIME_SYSTEM    = UTC
MEAN_ELEMENT_THEORY = SGP/SGP4

EPOCH          = 2025-12-09T20:18:10.612224
MEAN_MOTION    = 14.96107489
ECCENTRICITY   = .0023949
INCLINATION    = 87.3826
RA_OF_ASC_NODE = 196.4434
ARG_OF_PERICENTER = 115.0505
MEAN_ANOMALY   = 245.3216

EPHEMERIS_TYPE = 0
CLASSIFICATION_TYPE = U
NORAD_CAT_ID   = 54149
ELEMENT_SET_NO = 999
REV_AT_EPOCH   = 17049
BSTAR          = .3438E-3
MEAN_MOTION_DOT = .3915E-4
MEAN_MOTION_DDOT = 0

CCSDS_OMM_VERS = 2.0
CREATION_DATE  = 
ORIGINATOR     = 

OBJECT_NAME    = XRISM
OBJECT_ID      = 2023-137A
CENTER_NAME    = EARTH
REF_FRAME      = TEME
TIME_SYSTEM    = UTC
MEAN_ELEMENT_THEORY = SGP/SGP4

EPOCH          = 2025-12-09T19:03:33.751296
MEAN_MOTION    = 15.10294082
ECCENTRICITY   = .0007698
INCLINATION    = 31.0005
RA_OF_ASC_NODE = 144.5611
ARG_OF_PERICENTER = 215.6918
MEAN_ANOMALY   = 144.3206

EPHEMERIS_TYPE = 0
CLASSIFICATION_TYPE = U
NORAD_CAT_ID   = 57800
ELEMENT_SET_NO = 999
REV_AT_EPOCH   = 12418
BSTAR          = .47766E-3
MEAN_MOTION_DOT = .8121E-4
MEAN_MOTION_DDOT = 0

CCSDS_OMM_VERS = 2.0
CREATION_DATE  = 
ORIGINATOR     = 

OBJECT_NAME    = ACS3
OBJECT_ID      = 2024-077B
CENTER_NAME    = EARTH
REF_FRAME      = TEME
TIME_SYSTEM    = UTC
MEAN_ELEMENT_THEORY = SGP/SGP4

EPOCH          = 2025-12-09T15:33:41.785920
MEAN_MOTION    = 13.85240551
ECCENTRICITY   = .0077938
INCLINATION    = 97.2710
RA_OF_ASC_NODE = 299.9445
ARG_OF_PERICENTER = 345.3697
MEAN_ANOMALY   = 14.5208

EPHEMERIS_TYPE = 0
CLASSIFICATION_TYPE = U
NORAD_CAT_ID   = 59588
ELEMENT_SET_NO = 999
REV_AT_EPOCH   = 8171
BSTAR          = .28136E-1
MEAN_MOTION_DOT = .32812E-3
MEAN_MOTION_DDOT = 0

CCSDS_OMM_VERS = 2.0
CREATION_DATE  = 
ORIGINATOR     = 

OBJECT_NAME    = SZ-21 MODULE
OBJECT_ID      = 2025-246C
CENTER_NAME    = EARTH
REF_FRAME      = TEME
TIME_SYSTEM    = UTC
MEAN_ELEMENT_THEORY = SGP/SGP4

EPOCH          = 2025-12-09T20:30:29.695968
MEAN_MOTION    = 15.62265570
ECCENTRICITY   = .0006298
INCLINATION    = 41.4773
RA_OF_ASC_NODE = 33.6441
ARG_OF_PERICENTER = 244.5965
MEAN_ANOMALY   = 115.4223

EPHEMERIS_TYPE = 0
CLASSIFICATION_TYPE = U
NORAD_CAT_ID   = 66515
ELEMENT_SET_NO = 999
REV_AT_EPOCH   = 399
BSTAR          = .3668E-3
MEAN_MOTION_DOT = .3312E-3
MEAN_MOTION_DDOT = 0

