CZ-2C R/B               
1 54039U 22132E   25343.51700419  .00038510  00000+0  57764-3 0  9993
2 54039  97.2948 339.6541 0023456  67.6851 292.6887 15.54501286176335
GSLV R/B                
1 54149U 22138AN  25343.84595616  .00003915  00000+0  34380-3 0  9998
2 54149  87.3826 196.4434 0023949 115.0505 245.3216 14.96107489170497
XRISM                   
1 57800U 23137A   25343.79414064  .00008121  00000+0  47766-3 0  9992
2 57800  31.0005 144.5611 0007698 215.6918 144.3206 15.10294082124183
ACS3                    
1 59588U 24077B   25343.64840030  .00032812  00000+0  28136-1 0  9993
2 59588  97.2710 299.9445 0077938 345.3697  14.5208 13.85240551 81717
SZ-21 MODULE            
1 66515U 25246C   25343.85451037  .00033120  00000+0  36680-3 0  9996
2 66515  41.4773  33.6441 0006298 244.5965 115.4223 15.62265570  3990
